{
 "type": "FeatureCollection",
 "features": [
  {
   "type": "Feature",
   "geometry": {
    "type": "LineString",
    "coordinates": [
     [
      25.9079165,
      48.2669664
     ],
     [
      25.9079276,
      48.2669718
     ],
     [
      25.90794,
      48.2669785
     ],
     [
      25.9079552,
      48.2669867
     ],
     [
      25.9079731,
      48.2669965
     ],
     [
      25.907993,
      48.2670074
     ],
     [
      25.908014,
      48.2670189
     ],
     [
      25.9080356,
      48.2670304
     ],
     [
      25.9080567,
      48.267042
     ],
     [
      25.9080779,
      48.2670533
     ],
     [
      25.908099,
      48.2670647
     ],
     [
      25.9081192,
      48.2670756
     ],
     [
      25.9081398,
      48.2670868
     ],
     [
      25.9081599,
      48.2670978
     ],
     [
      25.9081801,
      48.2671088
     ],
     [
      25.9082003,
      48.2671198
     ],
     [
      25.9082201,
      48.2671307
     ],
     [
      25.9082379,
      48.2671405
     ]
    ]
   },
   "properties": {
    "track_id": 1,
    "observations": 18,
    "duration_s": 1.7,
    "displacement_m": 28.0,
    "median_speed_mps": 14.98,
    "median_speed_kmh": 53.9
   }
  },
  {
   "type": "Feature",
   "geometry": {
    "type": "LineString",
    "coordinates": [
     [
      25.908109,
      48.267112
     ],
     [
      25.9081054,
      48.2671093
     ],
     [
      25.9081008,
      48.2671066
     ],
     [
      25.908095,
      48.2671034
     ],
     [
      25.9080877,
      48.2670992
     ],
     [
      25.9080793,
      48.2670946
     ],
     [
      25.9080704,
      48.2670898
     ],
     [
      25.9080617,
      48.2670846
     ],
     [
      25.9080527,
      48.2670794
     ],
     [
      25.9080438,
      48.2670743
     ],
     [
      25.9080351,
      48.2670692
     ],
     [
      25.9080266,
      48.2670642
     ],
     [
      25.9080181,
      48.2670593
     ],
     [
      25.9080096,
      48.2670545
     ],
     [
      25.9080011,
      48.2670496
     ],
     [
      25.9079925,
      48.2670447
     ],
     [
      25.9079842,
      48.2670399
     ],
     [
      25.907976,
      48.2670351
     ],
     [
      25.9079676,
      48.2670304
     ],
     [
      25.907959,
      48.2670257
     ],
     [
      25.9079504,
      48.2670209
     ],
     [
      25.9079418,
      48.2670161
     ],
     [
      25.9079332,
      48.2670113
     ],
     [
      25.9079244,
      48.2670065
     ],
     [
      25.9079155,
      48.2670017
     ],
     [
      25.9079067,
      48.2669971
     ],
     [
      25.907898,
      48.2669923
     ],
     [
      25.9078888,
      48.2669874
     ],
     [
      25.9078797,
      48.2669824
     ],
     [
      25.9078706,
      48.2669773
     ],
     [
      25.9078612,
      48.2669722
     ],
     [
      25.9078518,
      48.266967
     ],
     [
      25.9078423,
      48.2669616
     ],
     [
      25.9078327,
      48.2669561
     ],
     [
      25.907823,
      48.2669506
     ],
     [
      25.9078133,
      48.2669449
     ],
     [
      25.9078035,
      48.2669392
     ],
     [
      25.9077939,
      48.2669335
     ],
     [
      25.9077841,
      48.2669277
     ],
     [
      25.9077743,
      48.2669219
     ],
     [
      25.9077645,
      48.266916
     ]
    ]
   },
   "properties": {
    "track_id": 2,
    "observations": 41,
    "duration_s": 4.0,
    "displacement_m": 32.2,
    "median_speed_mps": 7.75,
    "median_speed_kmh": 27.9
   }
  },
  {
   "type": "Feature",
   "geometry": {
    "type": "LineString",
    "coordinates": [
     [
      25.9078017,
      48.2667399
     ],
     [
      25.9078016,
      48.2667402
     ],
     [
      25.9078588,
      48.2669268
     ],
     [
      25.907868,
      48.2669385
     ],
     [
      25.9078946,
      48.2669646
     ],
     [
      25.9079091,
      48.2669725
     ]
    ]
   },
   "properties": {
    "track_id": 9,
    "observations": 6,
    "duration_s": 1.2,
    "displacement_m": 25.9,
    "median_speed_mps": 9.62,
    "median_speed_kmh": 34.6
   }
  },
  {
   "type": "Feature",
   "geometry": {
    "type": "LineString",
    "coordinates": [
     [
      25.9070917,
      48.2665025
     ],
     [
      25.9070922,
      48.2665024
     ],
     [
      25.9070944,
      48.2665034
     ],
     [
      25.9071047,
      48.2665092
     ],
     [
      25.9071127,
      48.2665137
     ],
     [
      25.9071204,
      48.2665177
     ],
     [
      25.9071277,
      48.2665216
     ],
     [
      25.9071348,
      48.2665254
     ],
     [
      25.9071512,
      48.2665344
     ],
     [
      25.9071578,
      48.2665381
     ],
     [
      25.9071638,
      48.2665416
     ],
     [
      25.9071839,
      48.2665526
     ],
     [
      25.9071889,
      48.2665551
     ],
     [
      25.907194,
      48.2665579
     ],
     [
      25.9071996,
      48.2665608
     ],
     [
      25.9072053,
      48.2665638
     ],
     [
      25.9072112,
      48.266567
     ],
     [
      25.9072173,
      48.2665703
     ],
     [
      25.9072235,
      48.2665736
     ],
     [
      25.9072296,
      48.2665769
     ],
     [
      25.9072358,
      48.2665802
     ],
     [
      25.9072737,
      48.2666008
     ],
     [
      25.9073008,
      48.2666156
     ],
     [
      25.9073093,
      48.2666204
     ]
    ]
   },
   "properties": {
    "track_id": 13,
    "observations": 24,
    "duration_s": 3.3,
    "displacement_m": 20.0,
    "median_speed_mps": 5.29,
    "median_speed_kmh": 19.0
   }
  },
  {
   "type": "Feature",
   "geometry": {
    "type": "LineString",
    "coordinates": [
     [
      25.9061717,
      48.2659991
     ],
     [
      25.9061742,
      48.2660003
     ],
     [
      25.9061808,
      48.2660038
     ],
     [
      25.9061902,
      48.2660089
     ],
     [
      25.9062019,
      48.2660151
     ],
     [
      25.9062153,
      48.2660222
     ],
     [
      25.9062293,
      48.2660299
     ],
     [
      25.9062437,
      48.2660374
     ],
     [
      25.9062576,
      48.2660449
     ],
     [
      25.9062712,
      48.2660524
     ],
     [
      25.9062846,
      48.2660597
     ],
     [
      25.9062973,
      48.2660668
     ],
     [
      25.9063102,
      48.2660738
     ],
     [
      25.9063228,
      48.2660806
     ],
     [
      25.9063347,
      48.2660871
     ],
     [
      25.9063467,
      48.2660936
     ],
     [
      25.9063582,
      48.2660997
     ],
     [
      25.9063696,
      48.2661058
     ],
     [
      25.9063807,
      48.2661118
     ],
     [
      25.9063919,
      48.2661177
     ],
     [
      25.9064026,
      48.2661235
     ]
    ]
   },
   "properties": {
    "track_id": 17,
    "observations": 21,
    "duration_s": 2.0,
    "displacement_m": 20.8,
    "median_speed_mps": 10.37,
    "median_speed_kmh": 37.3
   }
  }
 ]
}